{
    "links": {
        "self": "http://www.neowsapp.com/rest/v1/neo/3409626?api_key=iIulBulltgU6a56xZRHN4H3l9WmuAYTsLGpBGhQ2"
    },
    "id": "3409626",
    "neo_reference_id": "3409626",
    "name": "(2008 HK)",
    "designation": "2008 HK",
    "nasa_jpl_url": "http://ssd.jpl.nasa.gov/sbdb.cgi?sstr=3409626",
    "absolute_magnitude_h": 22.2,
    "estimated_diameter": {
        "kilometers": {
            "estimated_diameter_min": 0.096506147,
            "estimated_diameter_max": 0.2157943048
        },
        "meters": {
            "estimated_diameter_min": 96.5061469579,
            "estimated_diameter_max": 215.7943048444
        },
        "miles": {
            "estimated_diameter_min": 0.059966121,
            "estimated_diameter_max": 0.134088323
        },
        "feet": {
            "estimated_diameter_min": 316.6212271853,
            "estimated_diameter_max": 707.9865871058
        }
    },
    "is_potentially_hazardous_asteroid": false,
    "close_approach_data": [
        {
            "close_approach_date": "2008-05-01",
            "close_approach_date_full": "2008-May-01 20:56",
            "epoch_date_close_approach": 1209675360000,
            "relative_velocity": {
                "kilometers_per_second": "11.6657552871",
                "kilometers_per_hour": "41996.7190335132",
                "miles_per_hour": "26095.1280016849"
            },
            "miss_distance": {
                "astronomical": "0.0863987158",
                "lunar": "33.6091004462",
                "kilometers": "12925063.854415346",
                "miles": "8031262.2645539348"
            },
            "orbiting_body": "Earth"
        },
        {
            "close_approach_date": "2161-05-29",
            "close_approach_date_full": "2161-May-29 22:14",
            "epoch_date_close_approach": 6040304040000,
            "relative_velocity": {
                "kilometers_per_second": "13.8437875887",
                "kilometers_per_hour": "49837.6353191432",
                "miles_per_hour": "30967.1684570532"
            },
            "miss_distance": {
                "astronomical": "0.2973137042",
                "lunar": "115.6550309338",
                "kilometers": "44477496.870130054",
                "miles": "27637035.0087565852"
            },
            "orbiting_body": "Earth"
        }
    ],
    "orbital_data": {
        "orbit_id": "13",
        "orbit_determination_date": "2017-04-06 09:03:39",
        "first_observation_date": "2008-04-25",
        "last_observation_date": "2008-05-08",
        "data_arc_in_days": 13,
        "observations_used": 80,
        "orbit_uncertainty": "8",
        "minimum_orbit_intersection": ".0687045",
        "jupiter_tisserand_invariant": "3.246",
        "epoch_osculation": "2454584.5",
        "eccentricity": ".5547574833589758",
        "semi_major_axis": "2.400198615093058",
        "inclination": "17.45829243489267",
        "ascending_node_longitude": "34.2615938028861",
        "orbital_period": "1358.217113005107",
        "perihelion_distance": "1.068670471822334",
        "perihelion_argument": "191.977320501134",
        "aphelion_distance": "3.731726758363782",
        "perihelion_time": "2454594.820035823353",
        "mean_anomaly": "357.2646399012106",
        "mean_motion": ".265053353070693",
        "equinox": "J2000",
        "orbit_class": {
            "orbit_class_type": "AMO",
            "orbit_class_description": "Near-Earth asteroid orbits similar to that of 1221 Amor",
            "orbit_class_range": "1.017 AU < q (perihelion) < 1.3 AU"
        }
    },
    "is_sentry_object": false
}